ADRAS-J                 
1 58992U 24034A   24229.37431083  .00009433  00000+0  86062-3 0  9997
2 58992  98.2169 205.1695 0042374 208.5918 151.2977 14.94634942 26850
